HAWK-12A                
1 64623U 25138C   26190.84552922  .00002820  00000+0  14009-3 0  9993
2 64623  97.4413 193.2478 0015465  63.2529 297.0286 15.18380966 57309
HAWK-13A                
1 67392U 26004AF  26190.72026515  .00002817  00000+0  13657-3 0  9997
2 67392  97.4443 189.2704 0003745 245.1003 114.9842 15.19330591 27189
HAWK-13C                
1 67393U 26004AG  26191.24699842  .00002818  00000+0  13661-3 0  9991
2 67393  97.4589 190.2043 0003642 247.0886 112.9965 15.19333711 27265
HAWK-13B                
1 67396U 26004AK  26191.24690726  .00002787  00000+0  13516-3 0  9990
2 67396  97.4529 190.0314 0004938 246.8840 113.1875 15.19332862 27266
HAWK-14B                
1 68436U 26067W   26189.83210197  .00002961  00000+0  14726-3 0  9995
2 68436  97.4554 147.9724 0002270  18.6098 341.5218 15.18398257 15223
HAWK-14C                
1 68441U 26067AB  26190.62301227  .00003076  00000+0  15281-3 0  9990
2 68441  97.4490 148.6369 0003178  38.2811 321.8648 15.18405678 15347
HAWK-14A                
1 68448U 26067AJ  26189.96413321  .00003164  00000+0  15712-3 0  9998
2 68448  97.4616 148.2238 0003924  32.2591 327.8883 15.18397986 15241
